{
  "norad_id": 56144,
  "name": "STARLINK-5374",
  "history": [
    {
      "epoch": "2026-03-28T14:10:14.918016Z",
      "apogee_km": 486.3735854087972,
      "perigee_km": 484.68237835726177,
      "latitude_deg": -1.65528345432881e-05,
      "longitude_deg": 1.4208136344542202,
      "height_km": 485.2801459263842,
      "semi_major_axis_km": 6863.664981883029,
      "eccentricity": 0.0001232,
      "inclination_deg": 43.0046,
      "raan_deg": 39.9917,
      "arg_perigee_deg": 271.6939,
      "mean_anomaly_deg": 88.3771,
      "mean_motion_rev_day": 15.26752522
    }
  ]
}